CRYOSAT 2               
1 36508U 10013A   22328.90580009  .00000192  00000+0  46839-4 0  9990
2 36508  92.0227 322.9868 0006717  71.8601 288.3337 14.51904020669414


